NORAD_CAT_ID,OBJECT_NAME,OBJECT_TYPE,EPOCH,MEAN_MOTION,ECCENTRICITY,INCLINATION,RA_OF_ASC_NODE,ARG_OF_PERICENTER,MEAN_ANOMALY,BSTAR,MEAN_MOTION_DOT,MEAN_MOTION_DDOT,TLE_LINE0,TLE_LINE1,TLE_LINE2,SEMIMAJOR_AXIS,PERIOD,APOGEE,PERIGEE,DECAYED
54158.0,STARLINK-5297,PAYLOAD,2023-04-21 03:07:14,15.08834364,0.0001281,53.2174,63.8669,91.7288,268.3851,3.9448e-05,3.4e-06,0.0,0 STARLINK-5297,1 54158U 22141B   23111.13003217  .00000340  00000-0  39448-4 0  9997,2 54158  53.2174  63.8669 0001281  91.7288 268.3851 15.08834364 26667,6917.898,95.438,540.649,538.876,0.0
54158.0,STARLINK-5297,PAYLOAD,2023-04-21 14:14:56,15.08842204,0.0001231,53.2176,61.7858,93.0506,267.0627,0.00026027,3.857e-05,0.0,0 STARLINK-5297,1 54158U 22141B   23111.59371183  .00003857  00000-0  26027-3 0  9991,2 54158  53.2176  61.7858 0001231  93.0506 267.0627 15.08842204 26736,6917.874,95.437,540.59,538.887,0.0
54158.0,STARLINK-5297,PAYLOAD,2023-04-23 05:59:34,15.08855534,0.0001399,53.2182,54.3551,67.9721,292.1419,0.00020344,2.953e-05,0.0,0 STARLINK-5297,1 54158U 22141B   23113.24970070  .00002953  00000-0  20344-3 0  9997,2 54158  53.2182  54.3551 0001399  67.9721 292.1419 15.08855534 26980,6917.833,95.437,540.666,538.73,0.0
54158.0,STARLINK-5297,PAYLOAD,2023-04-24 02:39:34,15.08848207,0.0001275,53.2187,50.4853,80.9382,279.1755,0.000159,2.244e-05,0.0,0 STARLINK-5297,1 54158U 22141B   23114.11081890  .00002244  00000-0  15900-3 0  9992,2 54158  53.2187  50.4853 0001275  80.9382 279.1755 15.08848207 27111,6917.855,95.437,540.602,538.838,0.0
54158.0,STARLINK-5297,PAYLOAD,2023-04-24 07:25:43,15.08882812,9.56e-05,53.2181,49.5955,76.9213,283.1886,0.0011181,0.00017572,0.0,0 STARLINK-5297,1 54158U 22141B   23114.30953169  .00017572  00000-0  11181-2 0  9996,2 54158  53.2181  49.5955 0000956  76.9213 283.1886 15.08882812 27143,6917.75,95.435,540.276,538.953,0.0
54158.0,STARLINK-5297,PAYLOAD,2023-04-25 05:41:05,15.0887621,0.000121,53.2185,45.4297,111.5089,248.6032,0.00045648,6.992e-05,0.0,0 STARLINK-5297,1 54158U 22141B   23115.23687089  .00006992  00000-0  45648-3 0  9994,2 54158  53.2185  45.4297 0001210 111.5089 248.6032 15.08876210 27281,6917.77,95.435,540.472,538.798,0.0
54158.0,STARLINK-5297,PAYLOAD,2023-04-26 05:31:56,15.08793038,0.0001046,53.2173,40.973,99.4924,260.6186,-0.00086181,-0.00013959,0.0,0 STARLINK-5297,1 54158U 22141B   23116.23051417 -.00013959  00000-0 -86181-3 0  9995,2 54158  53.2173  40.9730 0001046  99.4924 260.6186 15.08793038 27436,6918.024,95.441,540.613,539.165,0.0
54158.0,STARLINK-5297,PAYLOAD,2023-04-27 03:47:21,15.08802561,8.08e-05,53.2176,36.8103,127.6351,232.4715,0.00093715,0.00014643,0.0,0 STARLINK-5297,1 54158U 22141B   23117.15788858  .00014643  00000-0  93715-3 0  9993,2 54158  53.2176  36.8103 0000808 127.6351 232.4715 15.08802561 27572,6917.995,95.44,540.419,539.301,0.0
54158.0,STARLINK-5297,PAYLOAD,2023-04-27 18:05:49,15.08845148,0.0001118,53.2167,34.1339,94.3541,265.7579,0.00093909,0.00014691,0.0,0 STARLINK-5297,1 54158U 22141B   23117.75404830  .00014691  00000-0  93909-3 0  9992,2 54158  53.2167  34.1339 0001118  94.3541 265.7579 15.08845148 27665,6917.865,95.437,540.503,538.956,0.0
54158.0,STARLINK-5297,PAYLOAD,2023-04-28 02:02:44,15.08865521,0.0001242,53.2171,32.6473,105.4031,254.7099,0.00098855,0.00015491,0.0,0 STARLINK-5297,1 54158U 22141B   23118.08523443  .00015491  00000-0  98855-3 0  9995,2 54158  53.2171  32.6473 0001242 105.4031 254.7099 15.08865521 27716,6917.802,95.436,540.527,538.808,0.0
54158.0,STARLINK-5297,PAYLOAD,2023-04-28 11:35:03,15.08859141,0.0001405,53.2168,30.8626,75.4451,284.6697,0.0003123,4.688e-05,0.0,0 STARLINK-5297,1 54158U 22141B   23118.48267571  .00004688  00000-0  31230-3 0  9996,2 54158  53.2168  30.8626 0001405  75.4451 284.6697 15.08859141 27778,6917.822,95.436,540.659,538.715,0.0
54158.0,STARLINK-5297,PAYLOAD,2023-04-29 00:18:08,15.0883984,8.97e-05,53.2181,28.4857,69.9843,290.1245,-0.00032035,-5.382e-05,0.0,0 STARLINK-5297,1 54158U 22141B   23119.01259548 -.00005382  00000-0 -32035-3 0  9999,2 54158  53.2181  28.4857 0000897  69.9843 290.1245 15.08839840 27853,6917.881,95.438,540.366,539.125,0.0
54158.0,STARLINK-5297,PAYLOAD,2023-04-29 17:47:22,15.08846447,0.0001301,53.2174,25.2144,84.0434,276.0706,0.00032837,4.943e-05,0.0,0 STARLINK-5297,1 54158U 22141B   23119.74123530  .00004943  00000-0  32837-3 0  9990,2 54158  53.2174  25.2144 0001301  84.0434 276.0706 15.08846447 27962,6917.861,95.437,540.626,538.826,0.0
54158.0,STARLINK-5297,PAYLOAD,2023-04-30 03:19:41,15.08857382,0.0001367,53.2173,23.4283,88.9464,271.1685,0.0007558,0.00011767,0.0,0 STARLINK-5297,1 54158U 22141B   23120.13867231  .00011767  00000-0  75580-3 0  9992,2 54158  53.2173  23.4283 0001367  88.9464 271.1685 15.08857382 28023,6917.827,95.436,540.638,538.747,0.0
54158.0,STARLINK-5297,PAYLOAD,2023-05-01 03:10:28,15.08840027,0.0001306,53.2178,18.9685,83.7612,276.3529,0.00038945,5.916e-05,0.0,0 STARLINK-5297,1 54158U 22141B   23121.13227898  .00005916  00000-0  38945-3 0  9995,2 54158  53.2178  18.9685 0001306  83.7612 276.3529 15.08840027 28172,6917.88,95.438,540.649,538.842,0.0
54158.0,STARLINK-5297,PAYLOAD,2023-05-01 22:15:06,15.08850674,0.0001387,53.2184,15.3993,89.4347,270.6804,0.00060042,9.283e-05,0.0,0 STARLINK-5297,1 54158U 22141B   23121.92715821  .00009283  00000-0  60042-3 0  9994,2 54158  53.2184  15.3993 0001387  89.4347 270.6804 15.08850674 28294,6917.848,95.437,540.672,538.753,0.0
54158.0,STARLINK-5297,PAYLOAD,2023-05-02 03:01:15,15.08857422,0.0001381,53.2184,14.5065,79.1991,280.9157,0.00071283,0.0001108,0.0,0 STARLINK-5297,1 54158U 22141B   23122.12587604  .00011080  00000-0  71283-3 0  9990,2 54158  53.2184  14.5065 0001381  79.1991 280.9157 15.08857422 28327,6917.827,95.436,540.647,538.737,0.0
54158.0,STARLINK-5297,PAYLOAD,2023-05-02 20:30:30,15.08848239,0.0001394,53.2177,11.2346,82.9137,277.2014,0.00017572,2.51e-05,0.0,0 STARLINK-5297,1 54158U 22141B   23122.85451478  .00002510  00000-0  17572-3 0  9998,2 54158  53.2177  11.2346 0001394  82.9137 277.2014 15.08848239 28432,6917.855,95.437,540.685,538.756,0.0
54158.0,STARLINK-5297,PAYLOAD,2023-05-03 01:16:39,15.08855645,0.0001245,53.2176,10.3452,85.7481,274.3654,0.00036714,5.562e-05,0.0,0 STARLINK-5297,1 54158U 22141B   23123.05323215  .00005562  00000-0  36714-3 0  9997,2 54158  53.2176  10.3452 0001245  85.7481 274.3654 15.08855645 28467,6917.833,95.437,540.559,538.836,0.0
54158.0,STARLINK-5297,PAYLOAD,2023-05-03 09:13:34,15.08846294,0.0001147,53.2171,8.8592,79.1561,280.9561,7.8922e-05,9.69e-06,0.0,0 STARLINK-5297,1 54158U 22141B   23123.38443236  .00000969  00000-0  78922-4 0  9993,2 54158  53.2171   8.8592 0001147  79.1561 280.9561 15.08846294 28512,6917.861,95.437,540.52,538.933,0.0
54158.0,STARLINK-5297,PAYLOAD,2023-05-03 20:21:17,15.08834305,0.000175,53.2187,6.7803,93.3847,266.7345,-0.00015902,-2.818e-05,0.0,0 STARLINK-5297,1 54158U 22141B   23123.84811922 -.00002818  00000-0 -15902-3 0  9990,2 54158  53.2187   6.7803 0001750  93.3847 266.7345 15.08834305 28585,6917.898,95.438,540.973,538.552,0.0
54158.0,STARLINK-5297,PAYLOAD,2023-05-03 21:56:40,15.08835173,0.0001568,53.2192,6.4829,91.5141,268.603,-0.00023755,-4.066e-05,0.0,0 STARLINK-5297,1 54158U 22141B   23123.91435906 -.00004066  00000-0 -23755-3 0  9994,2 54158  53.2192   6.4829 0001568  91.5141 268.6030 15.08835173 28597,6917.895,95.438,540.845,538.675,0.0
54158.0,STARLINK-5297,PAYLOAD,2023-05-04 09:04:22,15.0883781,0.0001425,53.2178,4.3952,79.698,280.4172,5.747e-06,-1.96e-06,0.0,0 STARLINK-5297,1 54158U 22141B   23124.37803994 -.00000196  00000-0  57470-5 0  9993,2 54158  53.2178   4.3952 0001425  79.6980 280.4172 15.08837810 28662,6917.887,95.438,540.738,538.766,0.0
54158.0,STARLINK-5297,PAYLOAD,2023-05-04 20:12:04,15.08845273,0.0001328,53.2176,2.3195,90.3703,269.7442,0.00013104,1.798e-05,0.0,0 STARLINK-5297,1 54158U 22141B   23124.84171711  .00001798  00000-0  13104-3 0  9992,2 54158  53.2176   2.3195 0001328  90.3703 269.7442 15.08845273 28732,6917.864,95.437,540.648,538.811,0.0
54158.0,STARLINK-5297,PAYLOAD,2023-05-04 21:47:27,15.08847649,0.0001325,53.2174,2.02,83.9541,276.1602,0.00013536,1.867e-05,0.0,0 STARLINK-5297,1 54158U 22141B   23124.90795606  .00001867  00000-0  13536-3 0  9990,2 54158  53.2174   2.0200 0001325  83.9541 276.1602 15.08847649 28749,6917.857,95.437,540.639,538.805,0.0
54158.0,STARLINK-5297,PAYLOAD,2023-05-05 20:02:51,15.08841968,0.0001352,53.2163,357.8557,79.9907,280.1238,0.0001953,2.822e-05,0.0,0 STARLINK-5297,1 54158U 22141B   23125.83532058  .00002822  00000-0  19530-3 0  9995,2 54158  53.2163 357.8557 0001352  79.9907 280.1238 15.08841968 28887,6917.874,95.437,540.675,538.804,0.0
54158.0,STARLINK-5297,PAYLOAD,2023-05-05 21:38:14,15.0884201,0.0001161,53.2154,357.5584,93.1165,266.996,0.00014557,2.03e-05,0.0,0 STARLINK-5297,1 54158U 22141B   23125.90155892  .00002030  00000-0  14557-3 0  9995,2 54158  53.2154 357.5584 0001161  93.1165 266.9960 15.08842010 28890,6917.874,95.437,540.542,538.936,0.0
54158.0,STARLINK-5297,PAYLOAD,2023-05-05 23:13:37,15.08843797,0.0001215,53.2159,357.2602,93.2698,266.8434,0.00018179,2.607e-05,0.0,0 STARLINK-5297,1 54158U 22141B   23125.96779858  .00002607  00000-0  18179-3 0  9999,2 54158  53.2159 357.2602 0001215  93.2698 266.8434 15.08843797 28905,6917.869,95.437,540.574,538.893,0.0
54158.0,STARLINK-5297,PAYLOAD,2023-05-06 21:29:02,15.08837213,0.0001185,53.2157,353.0974,93.1613,266.9515,2.1088e-05,4.8e-07,0.0,0 STARLINK-5297,1 54158U 22141B   23126.89516372  .00000048  00000-0  21088-4 0  9993,2 54158  53.2157 353.0974 0001185  93.1613 266.9515 15.08837213 29044,6917.889,95.438,540.574,538.934,0.0
54158.0,STARLINK-5297,PAYLOAD,2023-05-07 21:19:49,15.08839722,0.0001171,53.2156,348.6378,88.7296,271.383,0.00016216,2.294e-05,0.0,0 STARLINK-5297,1 54158U 22141B   23127.88876756  .00002294  00000-0  16216-3 0  9999,2 54158  53.2156 348.6378 0001171  88.7296 271.3830 15.08839722 29196,6917.881,95.438,540.556,538.936,0.0
